{
  "type": "FeatureCollection",
  "features": [
    {
      "type": "Feature",
      "properties": {
        "norad_id": 33844,
        "name": "COSMOS 2251 DEB",
        "group": "cosmos-2251-debris",
        "lat": 8.891956429968873,
        "lon": -144.15060674375164,
        "alt_km": 793.6003869641108,
        "timestamp": "2025-12-20T14:38:02.361896+00:00",
        "meta_object_name": "COSMOS 2251 DEB",
        "meta_object_id": "1993-036CM",
        "meta_epoch": "2025-12-20T05:48:29.979360",
        "meta_mean_motion": 14.33730182,
        "meta_eccentricity": 0.00470935,
        "meta_inclination": 74.0667,
        "meta_ra_of_asc_node": 39.0821,
        "meta_arg_of_pericenter": 58.5943,
        "meta_mean_anomaly": 14.2655,
        "meta_ephemeris_type": 0,
        "meta_classification_type": "U",
        "meta_norad_cat_id": 33844,
        "meta_element_set_no": 999,
        "meta_rev_at_epoch": 87833,
        "meta_bstar": 0.00025664937,
        "meta_mean_motion_dot": 6.96e-06,
        "meta_mean_motion_ddot": 0,
        "tle_line1": "1 33844U 93036CM  25354.24201365  .00000696  00000+0  25665-3 0  9992",
        "tle_line2": "2 33844  74.0667  39.0821 0047093  58.5943  14.2655 14.33730182878338"
      },
      "geometry": {
        "type": "Point",
        "coordinates": [
          -144.15060674375164,
          8.891956429968873
        ]
      }
    },
    {
      "type": "Feature",
      "properties": {
        "norad_id": 33848,
        "name": "COSMOS 2251 DEB",
        "group": "cosmos-2251-debris",
        "lat": -69.92313390101906,
        "lon": -68.57653158724071,
        "alt_km": 763.8780531324846,
        "timestamp": "2025-12-20T14:38:02.361906+00:00",
        "meta_object_name": "COSMOS 2251 DEB",
        "meta_object_id": "1993-036CR",
        "meta_epoch": "2025-12-20T00:17:50.671392",
        "meta_mean_motion": 14.44106795,
        "meta_eccentricity": 0.0041552,
        "meta_inclination": 74.0315,
        "meta_ra_of_asc_node": 344.1104,
        "meta_arg_of_pericenter": 37.7329,
        "meta_mean_anomaly": 20.7691,
        "meta_ephemeris_type": 0,
        "meta_classification_type": "U",
        "meta_norad_cat_id": 33848,
        "meta_element_set_no": 999,
        "meta_rev_at_epoch": 87936,
        "meta_bstar": 0.00073116658,
        "meta_mean_motion_dot": 2.505e-05,
        "meta_mean_motion_ddot": 0,
        "tle_line1": "1 33848U 93036CR  25354.01239203  .00002505  00000+0  73117-3 0  9999",
        "tle_line2": "2 33848  74.0315 344.1104 0041552  37.7329  20.7691 14.44106795879362"
      },
      "geometry": {
        "type": "Point",
        "coordinates": [
          -68.57653158724071,
          -69.92313390101906
        ]
      }
    },
    {
      "type": "Feature",
      "properties": {
        "norad_id": 33892,
        "name": "COSMOS 2251 DEB",
        "group": "cosmos-2251-debris",
        "lat": -19.688550605239737,
        "lon": 81.731256346471,
        "alt_km": 878.3116596475784,
        "timestamp": "2025-12-20T14:38:02.361916+00:00",
        "meta_object_name": "COSMOS 2251 DEB",
        "meta_object_id": "1993-036CV",
        "meta_epoch": "2025-12-20T00:22:08.893344",
        "meta_mean_motion": 14.23361225,
        "meta_eccentricity": 0.01124489,
        "meta_inclination": 73.8027,
        "meta_ra_of_asc_node": 88.7851,
        "meta_arg_of_pericenter": 118.6054,
        "meta_mean_anomaly": 57.4187,
        "meta_ephemeris_type": 0,
        "meta_classification_type": "U",
        "meta_norad_cat_id": 33892,
        "meta_element_set_no": 999,
        "meta_rev_at_epoch": 87058,
        "meta_bstar": 0.0004540357,
        "meta_mean_motion_dot": 1.073e-05,
        "meta_mean_motion_ddot": 0,
        "tle_line1": "1 33892U 93036CV  25354.01538071  .00001073  00000+0  45404-3 0  9990",
        "tle_line2": "2 33892  73.8027  88.7851 0112448 118.6054  57.4187 14.23361225870585"
      },
      "geometry": {
        "type": "Point",
        "coordinates": [
          81.731256346471,
          -19.688550605239737
        ]
      }
    },
    {
      "type": "Feature",
      "properties": {
        "norad_id": 33894,
        "name": "COSMOS 2251 DEB",
        "group": "cosmos-2251-debris",
        "lat": -57.69772574427057,
        "lon": -175.6614149569999,
        "alt_km": 759.654554811973,
        "timestamp": "2025-12-20T14:38:02.361926+00:00",
        "meta_object_name": "COSMOS 2251 DEB",
        "meta_object_id": "1993-036CX",
        "meta_epoch": "2025-12-19T22:50:18.443904",
        "meta_mean_motion": 13.21320525,
        "meta_eccentricity": 0.05791531,
        "meta_inclination": 73.767,
        "meta_ra_of_asc_node": 337.9187,
        "meta_arg_of_pericenter": 256.3901,
        "meta_mean_anomaly": 97.2081,
        "meta_ephemeris_type": 0,
        "meta_classification_type": "U",
        "meta_norad_cat_id": 33894,
        "meta_element_set_no": 999,
        "meta_rev_at_epoch": 80803,
        "meta_bstar": 0.00109059,
        "meta_mean_motion_dot": 1.062e-05,
        "meta_mean_motion_ddot": 0,
        "tle_line1": "1 33894U 93036CX  25353.95160236  .00001062  00000+0  10906-2 0  9994",
        "tle_line2": "2 33894  73.7670 337.9187 0579153 256.3901  97.2081 13.21320525808033"
      },
      "geometry": {
        "type": "Point",
        "coordinates": [
          -175.6614149569999,
          -57.69772574427057
        ]
      }
    },
    {
      "type": "Feature",
      "properties": {
        "norad_id": 33896,
        "name": "COSMOS 2251 DEB",
        "group": "cosmos-2251-debris",
        "lat": -66.66176431945257,
        "lon": 99.92073754834226,
        "alt_km": 755.8334833899007,
        "timestamp": "2025-12-20T14:38:02.361937+00:00",
        "meta_object_name": "COSMOS 2251 DEB",
        "meta_object_id": "1993-036CZ",
        "meta_epoch": "2025-12-19T20:54:55.245600",
        "meta_mean_motion": 14.19053906,
        "meta_eccentricity": 0.01268079,
        "meta_inclination": 73.7663,
        "meta_ra_of_asc_node": 143.7355,
        "meta_arg_of_pericenter": 318.2939,
        "meta_mean_anomaly": 159.354,
        "meta_ephemeris_type": 0,
        "meta_classification_type": "U",
        "meta_norad_cat_id": 33896,
        "meta_element_set_no": 999,
        "meta_rev_at_epoch": 86841,
        "meta_bstar": 0.00030590791,
        "meta_mean_motion_dot": 6.64e-06,
        "meta_mean_motion_ddot": 0,
        "tle_line1": "1 33896U 93036CZ  25353.87147275  .00000664  00000+0  30591-3 0  9995",
        "tle_line2": "2 33896  73.7663 143.7355 0126807 318.2939 159.3540 14.19053906868412"
      },
      "geometry": {
        "type": "Point",
        "coordinates": [
          99.92073754834226,
          -66.66176431945257
        ]
      }
    },
    {
      "type": "Feature",
      "properties": {
        "norad_id": 33899,
        "name": "COSMOS 2251 DEB",
        "group": "cosmos-2251-debris",
        "lat": 56.55925237409845,
        "lon": 96.34857848161737,
        "alt_km": 670.1258336582969,
        "timestamp": "2025-12-20T14:38:02.361947+00:00",
        "meta_object_name": "COSMOS 2251 DEB",
        "meta_object_id": "1993-036DC",
        "meta_epoch": "2025-12-20T04:37:37.423200",
        "meta_mean_motion": 14.61249146,
        "meta_eccentricity": 0.00562569,
        "meta_inclination": 74.0544,
        "meta_ra_of_asc_node": 71.4909,
        "meta_arg_of_pericenter": 132.0189,
        "meta_mean_anomaly": 256.3671,
        "meta_ephemeris_type": 0,
        "meta_classification_type": "U",
        "meta_norad_cat_id": 33899,
        "meta_element_set_no": 999,
        "meta_rev_at_epoch": 88948,
        "meta_bstar": 0.0005222702,
        "meta_mean_motion_dot": 2.604e-05,
        "meta_mean_motion_ddot": 0,
        "tle_line1": "1 33899U 93036DC  25354.19279425  .00002604  00000+0  52227-3 0  9993",
        "tle_line2": "2 33899  74.0544  71.4909 0056256 132.0189 256.3671 14.61249146889481"
      },
      "geometry": {
        "type": "Point",
        "coordinates": [
          96.34857848161737,
          56.55925237409845
        ]
      }
    },
    {
      "type": "Feature",
      "properties": {
        "norad_id": 33900,
        "name": "COSMOS 2251 DEB",
        "group": "cosmos-2251-debris",
        "lat": 14.08809746454743,
        "lon": -11.007487651729251,
        "alt_km": 715.3781832656914,
        "timestamp": "2025-12-20T14:38:02.361956+00:00",
        "meta_object_name": "COSMOS 2251 DEB",
        "meta_object_id": "1993-036DD",
        "meta_epoch": "2025-12-20T05:16:40.848672",
        "meta_mean_motion": 14.5837094,
        "meta_eccentricity": 0.00465064,
        "meta_inclination": 74.0182,
        "meta_ra_of_asc_node": 345.6105,
        "meta_arg_of_pericenter": 135.5507,
        "meta_mean_anomaly": 353.8553,
        "meta_ephemeris_type": 0,
        "meta_classification_type": "U",
        "meta_norad_cat_id": 33900,
        "meta_element_set_no": 999,
        "meta_rev_at_epoch": 89145,
        "meta_bstar": 0.00026700658,
        "meta_mean_motion_dot": 1.225e-05,
        "meta_mean_motion_ddot": 0,
        "tle_line1": "1 33900U 93036DD  25354.21991723  .00001225  00000+0  26701-3 0  9997",
        "tle_line2": "2 33900  74.0182 345.6105 0046506 135.5507 353.8553 14.58370940891450"
      },
      "geometry": {
        "type": "Point",
        "coordinates": [
          -11.007487651729251,
          14.08809746454743
        ]
      }
    }
  ]
}